{"type": "FeatureCollection", "crs": {"type": "name", "properties": {"name": "EPSG:4326"}}, "features": [{"type": "Feature", "geometry": {"type": "Point", "coordinates": [-75.450129367, 6.37753088800002]}, "properties": {"IPID": 9910263, "DIAMETRO": 75, "ESTADO": "OPERACION", "TIPO_AGUA": "POTABLE", "NOMBRE_CIRCUITO": "GIRARDOTA", "UBICACION": "CL 10 CR 18 -49", "MUNICIPIO": "GIRARDOTA"}}, {"type": "Feature", "geometry": {"type": "Point", "coordinates": [-75.445250444, 6.36960282600006]}, "properties": {"IPID": 9822899, "DIAMETRO": 100, "ESTADO": "OPERACION", "TIPO_AGUA": "POTABLE", "NOMBRE_CIRCUITO": "EL TOTUMO", "UBICACION": "CL 10 BA CR 9 -1", "MUNICIPIO": "GIRARDOTA"}}, {"type": "Feature", "geometry": {"type": "Point", "coordinates": [-75.447621609, 6.36946231700006]}, "properties": {"IPID": 9809095, "DIAMETRO": 75, "ESTADO": "OPERACION", "TIPO_AGUA": "POTABLE", "NOMBRE_CIRCUITO": "EL TOTUMO", "UBICACION": "CL 10 H CR 9 -51", "MUNICIPIO": "GIRARDOTA"}}, {"type": "Feature", "geometry": {"type": "Point", "coordinates": [-75.447151334, 6.36956922700006]}, "properties": {"IPID": 9809097, "DIAMETRO": 75, "ESTADO": "OPERACION", "TIPO_AGUA": "POTABLE", "NOMBRE_CIRCUITO": "EL TOTUMO", "UBICACION": "CR 9 A CL 10 C - 97", "MUNICIPIO": "GIRARDOTA"}}, {"type": "Feature", "geometry": {"type": "Point", "coordinates": [-75.4465183139999, 6.36979732600003]}, "properties": {"IPID": 9809099, "DIAMETRO": 75, "ESTADO": "OPERACION", "TIPO_AGUA": "POTABLE", "NOMBRE_CIRCUITO": "EL TOTUMO", "UBICACION": "CR 9 A CL 10 C - 27", "MUNICIPIO": "GIRARDOTA"}}, {"type": "Feature", "geometry": {"type": "Point", "coordinates": [-75.446318581, 6.36942068000008]}, "properties": {"IPID": 9809100, "DIAMETRO": 75, "ESTADO": "OPERACION", "TIPO_AGUA": "POTABLE", "NOMBRE_CIRCUITO": "EL TOTUMO", "UBICACION": "CR 9 CL 10 C - 24", "MUNICIPIO": "GIRARDOTA"}}, {"type": "Feature", "geometry": {"type": "Point", "coordinates": [-75.446994058, 6.36914647700007]}, "properties": {"IPID": 9809102, "DIAMETRO": 75, "ESTADO": "OPERACION", "TIPO_AGUA": "POTABLE", "NOMBRE_CIRCUITO": "EL TOTUMO", "UBICACION": "CR 9 CL 10 C - 134", "MUNICIPIO": "GIRARDOTA"}}, {"type": "Feature", "geometry": {"type": "Point", "coordinates": [-75.4471440039999, 6.36881460000006]}, "properties": {"IPID": 9809103, "DIAMETRO": 75, "ESTADO": "OPERACION", "TIPO_AGUA": "POTABLE", "NOMBRE_CIRCUITO": "EL TOTUMO", "UBICACION": "CR 9 CL 10 C -131", "MUNICIPIO": "GIRARDOTA"}}, {"type": "Feature", "geometry": {"type": "Point", "coordinates": [-75.445907039, 6.36923819500004]}, "properties": {"IPID": 9809104, "DIAMETRO": 75, "ESTADO": "OPERACION", "TIPO_AGUA": "POTABLE", "NOMBRE_CIRCUITO": "EL TOTUMO", "UBICACION": "CL 10 C CR 8 -15", "MUNICIPIO": "GIRARDOTA"}}, {"type": "Feature", "geometry": {"type": "Point", "coordinates": [-75.476197945, 6.38369898700006]}, "properties": {"IPID": 9871042, "DIAMETRO": 75, "ESTADO": "OPERACION", "TIPO_AGUA": "POTABLE", "NOMBRE_CIRCUITO": "SAN ESTEBAN", "UBICACION": "RURAL_177000212400000000_PARC EL LIMONAR", "MUNICIPIO": "GIRARDOTA"}}, {"type": "Feature", "geometry": {"type": "Point", "coordinates": [-75.441328513, 6.37504774700005]}, "properties": {"IPID": 2023275, "DIAMETRO": 75, "ESTADO": "OPERACION", "TIPO_AGUA": "POTABLE", "NOMBRE_CIRCUITO": "GIRARDOTA", "UBICACION": "CR 11 CL 5 -4_", "MUNICIPIO": "GIRARDOTA"}}, {"type": "Feature", "geometry": {"type": "Point", "coordinates": [-75.4440630679999, 6.37398482600003]}, "properties": {"IPID": 4022495, "DIAMETRO": 150, "ESTADO": "OPERACION", "TIPO_AGUA": "POTABLE", "NOMBRE_CIRCUITO": "GIRARDOTA", "UBICACION": "CL 7 CR 12 -4_", "MUNICIPIO": "GIRARDOTA"}}, {"type": "Feature", "geometry": {"type": "Point", "coordinates": [-75.4437636339999, 6.37499274900006]}, "properties": {"IPID": 4022571, "DIAMETRO": 150, "ESTADO": "OPERACION", "TIPO_AGUA": "POTABLE", "NOMBRE_CIRCUITO": "GIRARDOTA", "UBICACION": "CL 6 CR 12 A -0_", "MUNICIPIO": "GIRARDOTA"}}, {"type": "Feature", "geometry": {"type": "Point", "coordinates": [-75.4470526969999, 6.37386315800006]}, "properties": {"IPID": 2026294, "DIAMETRO": 150, "ESTADO": "OPERACION", "TIPO_AGUA": "POTABLE", "NOMBRE_CIRCUITO": "EL TOTUMO", "UBICACION": "CL 10 CR 12 -81", "MUNICIPIO": "GIRARDOTA"}}, {"type": "Feature", "geometry": {"type": "Point", "coordinates": [-75.45576751, 6.37383517500007]}, "properties": {"IPID": 4022420, "DIAMETRO": 100, "ESTADO": "OPERACION", "TIPO_AGUA": "POTABLE", "NOMBRE_CIRCUITO": "EL TOTUMO", "UBICACION": "RURAL_177070300000000000_177070300000000000_", "MUNICIPIO": "GIRARDOTA"}}, {"type": "Feature", "geometry": {"type": "Point", "coordinates": [-75.456376495, 6.36853507400002]}, "properties": {"IPID": 4022759, "DIAMETRO": 75, "ESTADO": "OPERACION", "TIPO_AGUA": "POTABLE", "NOMBRE_CIRCUITO": "EL TOTUMO", "UBICACION": "RURAL_177047699000000201_177047699000000201_", "MUNICIPIO": "GIRARDOTA"}}, {"type": "Feature", "geometry": {"type": "Point", "coordinates": [-75.460499564, 6.37282142500004]}, "properties": {"IPID": 2024068, "DIAMETRO": 75, "ESTADO": "OPERACION", "TIPO_AGUA": "POTABLE", "NOMBRE_CIRCUITO": "EL TOTUMO", "UBICACION": "RURAL_177079054800000000_177079054800000000_", "MUNICIPIO": "GIRARDOTA"}}, {"type": "Feature", "geometry": {"type": "Point", "coordinates": [-75.446255659, 6.37704416300005]}, "properties": {"IPID": 2024689, "DIAMETRO": 100, "ESTADO": "OPERACION", "TIPO_AGUA": "POTABLE", "NOMBRE_CIRCUITO": "GIRARDOTA", "UBICACION": "CL 7 CR 15 -11_", "MUNICIPIO": "GIRARDOTA"}}, {"type": "Feature", "geometry": {"type": "Point", "coordinates": [-75.44320248, 6.37898121700005]}, "properties": {"IPID": 2026061, "DIAMETRO": 150, "ESTADO": "OPERACION", "TIPO_AGUA": "POTABLE", "NOMBRE_CIRCUITO": "GIRARDOTA", "UBICACION": "CL 4 CR 14 B -40", "MUNICIPIO": "GIRARDOTA"}}, {"type": "Feature", "geometry": {"type": "Point", "coordinates": [-75.435581137, 6.38169395700004]}, "properties": {"IPID": 2024310, "DIAMETRO": 150, "ESTADO": "OPERACION", "TIPO_AGUA": "POTABLE", "NOMBRE_CIRCUITO": "GIRARDOTA", "UBICACION": "RURAL_177012772800000000_177012772800000000_", "MUNICIPIO": "GIRARDOTA"}}, {"type": "Feature", "geometry": {"type": "Point", "coordinates": [-75.442568771, 6.37688799200004]}, "properties": {"IPID": 2026907, "DIAMETRO": 150, "ESTADO": "OPERACION", "TIPO_AGUA": "POTABLE", "NOMBRE_CIRCUITO": "GIRARDOTA", "UBICACION": "CR 13 CL 4 -128_", "MUNICIPIO": "GIRARDOTA"}}, {"type": "Feature", "geometry": {"type": "Point", "coordinates": [-75.4444126719999, 6.37928116900002]}, "properties": {"IPID": 4575447, "DIAMETRO": 75, "ESTADO": "OPERACION", "TIPO_AGUA": "POTABLE", "NOMBRE_CIRCUITO": "GIRARDOTA", "UBICACION": "CR 17 A CL 4 A -9_", "MUNICIPIO": "GIRARDOTA"}}, {"type": "Feature", "geometry": {"type": "Point", "coordinates": [-75.433750058, 6.38365072000005]}, "properties": {"IPID": 4575452, "DIAMETRO": 150, "ESTADO": "OPERACION", "TIPO_AGUA": "POTABLE", "NOMBRE_CIRCUITO": "GIRARDOTA", "UBICACION": "RURAL_177012669030000000 GIRARDOTA_", "MUNICIPIO": "GIRARDOTA"}}, {"type": "Feature", "geometry": {"type": "Point", "coordinates": [-75.446715032, 6.37760501400004]}, "properties": {"IPID": 2023548, "DIAMETRO": 150, "ESTADO": "OPERACION", "TIPO_AGUA": "POTABLE", "NOMBRE_CIRCUITO": "GIRARDOTA", "UBICACION": "CL 7 CR 16 -1_", "MUNICIPIO": "GIRARDOTA"}}, {"type": "Feature", "geometry": {"type": "Point", "coordinates": [-75.448191346, 6.37948121100004]}, "properties": {"IPID": 2024323, "DIAMETRO": 100, "ESTADO": "OPERACION", "TIPO_AGUA": "POTABLE", "NOMBRE_CIRCUITO": "GIRARDOTA", "UBICACION": "CL 7 CR 18 -88", "MUNICIPIO": "GIRARDOTA"}}, {"type": "Feature", "geometry": {"type": "Point", "coordinates": [-75.474029484, 6.38237749900003]}, "properties": {"IPID": 9823706, "DIAMETRO": 100, "ESTADO": "OPERACION", "TIPO_AGUA": "POTABLE", "NOMBRE_CIRCUITO": "SAN ESTEBAN", "UBICACION": "RURAL_177000228000000000_RURAL GIRARDOTA", "MUNICIPIO": "GIRARDOTA"}}, {"type": "Feature", "geometry": {"type": "Point", "coordinates": [-75.472038019, 6.38296419500006]}, "properties": {"IPID": 9823707, "DIAMETRO": 100, "ESTADO": "OPERACION", "TIPO_AGUA": "POTABLE", "NOMBRE_CIRCUITO": "SAN ESTEBAN", "UBICACION": "177000228200000000", "MUNICIPIO": "GIRARDOTA"}}, {"type": "Feature", "geometry": {"type": "Point", "coordinates": [-75.423924158, 6.39422896100007]}, "properties": {"IPID": 9502764, "DIAMETRO": 150, "ESTADO": "OPERACION", "TIPO_AGUA": "POTABLE", "NOMBRE_CIRCUITO": "GIRARDOTA", "UBICACION": "RURAL_177009689500000000_177009689500000000", "MUNICIPIO": "GIRARDOTA"}}, {"type": "Feature", "geometry": {"type": "Point", "coordinates": [-75.4431359769999, 6.37431935400002]}, "properties": {"IPID": 4022487, "DIAMETRO": 150, "ESTADO": "OPERACION", "TIPO_AGUA": "POTABLE", "NOMBRE_CIRCUITO": "GIRARDOTA", "UBICACION": "CR 11 B CL 6 -1", "MUNICIPIO": "GIRARDOTA"}}, {"type": "Feature", "geometry": {"type": "Point", "coordinates": [-75.444589369, 6.38036481400007]}, "properties": {"IPID": 2053865, "DIAMETRO": 150, "ESTADO": "OPERACION", "TIPO_AGUA": "POTABLE", "NOMBRE_CIRCUITO": "GIRARDOTA", "UBICACION": "CR 18 A CL 4 A -29", "MUNICIPIO": "GIRARDOTA"}}, {"type": "Feature", "geometry": {"type": "Point", "coordinates": [-75.44973305, 6.37995750200002]}, "properties": {"IPID": 2024504, "DIAMETRO": 75, "ESTADO": "OPERACION", "TIPO_AGUA": "POTABLE", "NOMBRE_CIRCUITO": "GIRARDOTA", "UBICACION": "CL 8 CR 21 A -54_", "MUNICIPIO": "GIRARDOTA"}}, {"type": "Feature", "geometry": {"type": "Point", "coordinates": [-75.449341938, 6.37646300000006]}, "properties": {"IPID": 2024919, "DIAMETRO": 75, "ESTADO": "OPERACION", "TIPO_AGUA": "POTABLE", "NOMBRE_CIRCUITO": "EL TOTUMO", "UBICACION": "CR 17 CL 10 -13_", "MUNICIPIO": "GIRARDOTA"}}, {"type": "Feature", "geometry": {"type": "Point", "coordinates": [-75.451395056, 6.37647943100006]}, "properties": {"IPID": 2025042, "DIAMETRO": 75, "ESTADO": "OPERACION", "TIPO_AGUA": "POTABLE", "NOMBRE_CIRCUITO": "EL TOTUMO", "UBICACION": "CR 17 F CL 12 A -2_", "MUNICIPIO": "GIRARDOTA"}}, {"type": "Feature", "geometry": {"type": "Point", "coordinates": [-75.4463290209999, 6.38058824000007]}, "properties": {"IPID": 2024539, "DIAMETRO": 75, "ESTADO": "OPERACION", "TIPO_AGUA": "POTABLE", "NOMBRE_CIRCUITO": "GIRARDOTA", "UBICACION": "CL 5 AA CR 17 B -82_", "MUNICIPIO": "GIRARDOTA"}}, {"type": "Feature", "geometry": {"type": "Point", "coordinates": [-75.450142134, 6.38159091200004]}, "properties": {"IPID": 2024667, "DIAMETRO": 100, "ESTADO": "OPERACION", "TIPO_AGUA": "POTABLE", "NOMBRE_CIRCUITO": "GIRARDOTA", "UBICACION": "CL 7 CR 24 -0_", "MUNICIPIO": "GIRARDOTA"}}, {"type": "Feature", "geometry": {"type": "Point", "coordinates": [-75.4494022919999, 6.37589129700007]}, "properties": {"IPID": 4575470, "DIAMETRO": 150, "ESTADO": "OPERACION", "TIPO_AGUA": "POTABLE", "NOMBRE_CIRCUITO": "EL TOTUMO", "UBICACION": "CL 10 A CR 16 B -1", "MUNICIPIO": "GIRARDOTA"}}, {"type": "Feature", "geometry": {"type": "Point", "coordinates": [-75.480493135, 6.38295386900006]}, "properties": {"IPID": 2023330, "DIAMETRO": 75, "ESTADO": "OPERACION", "TIPO_AGUA": "POTABLE", "NOMBRE_CIRCUITO": "SAN ESTEBAN", "UBICACION": "RURAL_177000212250000101_PARC EL LIMONAR_", "MUNICIPIO": "GIRARDOTA"}}, {"type": "Feature", "geometry": {"type": "Point", "coordinates": [-75.475680543, 6.37747104600004]}, "properties": {"IPID": 4511564, "DIAMETRO": 75, "ESTADO": "OPERACION", "TIPO_AGUA": "POTABLE", "NOMBRE_CIRCUITO": "SAN ESTEBAN", "UBICACION": "16505078800000000_", "MUNICIPIO": "GIRARDOTA"}}, {"type": "Feature", "geometry": {"type": "Point", "coordinates": [-75.420098428, 6.39032014200006]}, "properties": {"IPID": 4022619, "DIAMETRO": 75, "ESTADO": "OPERACION", "TIPO_AGUA": "POTABLE", "NOMBRE_CIRCUITO": "GIRARDOTA", "UBICACION": "RURAL_177010036350000000 GIRARDOTA_", "MUNICIPIO": "GIRARDOTA"}}, {"type": "Feature", "geometry": {"type": "Point", "coordinates": [-75.479285326, 6.38705829800006]}, "properties": {"IPID": 2024020, "DIAMETRO": 75, "ESTADO": "OPERACION", "TIPO_AGUA": "POTABLE", "NOMBRE_CIRCUITO": "SAN ESTEBAN", "UBICACION": "177000212200000000", "MUNICIPIO": "GIRARDOTA"}}, {"type": "Feature", "geometry": {"type": "Point", "coordinates": [-75.450607727, 6.38100553300006]}, "properties": {"IPID": 9062128, "DIAMETRO": 75, "ESTADO": "OPERACION", "TIPO_AGUA": "POTABLE", "NOMBRE_CIRCUITO": "GIRARDOTA", "UBICACION": "CL 8 CR 23 -80", "MUNICIPIO": "GIRARDOTA"}}, {"type": "Feature", "geometry": {"type": "Point", "coordinates": [-75.448061572, 6.38051645000007]}, "properties": {"IPID": 9062133, "DIAMETRO": 75, "ESTADO": "OPERACION", "TIPO_AGUA": "POTABLE", "NOMBRE_CIRCUITO": "GIRARDOTA", "UBICACION": "CL 6 CR 18 -150", "MUNICIPIO": "GIRARDOTA"}}, {"type": "Feature", "geometry": {"type": "Point", "coordinates": [-75.460231192, 6.36851709400003]}, "properties": {"IPID": 9132247, "DIAMETRO": 75, "ESTADO": "OPERACION", "TIPO_AGUA": "POTABLE", "NOMBRE_CIRCUITO": "EL TOTUMO", "UBICACION": "RURAL_177047548500000000_177047548500000000", "MUNICIPIO": "GIRARDOTA"}}, {"type": "Feature", "geometry": {"type": "Point", "coordinates": [-75.4458696579999, 6.37051095000004]}, "properties": {"IPID": 9084254, "DIAMETRO": 100, "ESTADO": "OPERACION", "TIPO_AGUA": "POTABLE", "NOMBRE_CIRCUITO": "EL TOTUMO", "UBICACION": "CR 10 CL 10 B -25", "MUNICIPIO": "GIRARDOTA"}}, {"type": "Feature", "geometry": {"type": "Point", "coordinates": [-75.446498923, 6.37021186000004]}, "properties": {"IPID": 9084836, "DIAMETRO": 75, "ESTADO": "OPERACION", "TIPO_AGUA": "POTABLE", "NOMBRE_CIRCUITO": "EL TOTUMO", "UBICACION": "CL 10 D CR 10 -0", "MUNICIPIO": "GIRARDOTA"}}, {"type": "Feature", "geometry": {"type": "Point", "coordinates": [-75.4759622889999, 6.38450421600004]}, "properties": {"IPID": 9354663, "DIAMETRO": 100, "ESTADO": "OPERACION", "TIPO_AGUA": "POTABLE", "NOMBRE_CIRCUITO": "SAN ESTEBAN", "UBICACION": "RURAL_177000227800000000_RURAL GIRARDOTA", "MUNICIPIO": "GIRARDOTA"}}, {"type": "Feature", "geometry": {"type": "Point", "coordinates": [-75.4760479939999, 6.38356765600003]}, "properties": {"IPID": 9354664, "DIAMETRO": 100, "ESTADO": "OPERACION", "TIPO_AGUA": "POTABLE", "NOMBRE_CIRCUITO": "SAN ESTEBAN", "UBICACION": "RURAL_177000227805000000", "MUNICIPIO": "GIRARDOTA"}}, {"type": "Feature", "geometry": {"type": "Point", "coordinates": [-75.455469851, 6.38241768000006]}, "properties": {"IPID": 9358924, "DIAMETRO": 75, "ESTADO": "OPERACION", "TIPO_AGUA": "POTABLE", "NOMBRE_CIRCUITO": "GIRARDOTA", "UBICACION": "RURAL_177000450500000000_RURAL GIRARDOTA", "MUNICIPIO": "GIRARDOTA"}}, {"type": "Feature", "geometry": {"type": "Point", "coordinates": [-75.441885151, 6.37787083300003]}, "properties": {"IPID": 9559261, "DIAMETRO": 75, "ESTADO": "OPERACION", "TIPO_AGUA": "POTABLE", "NOMBRE_CIRCUITO": "GIRARDOTA", "UBICACION": "CL 3 CR 13 A -91", "MUNICIPIO": "GIRARDOTA"}}, {"type": "Feature", "geometry": {"type": "Point", "coordinates": [-75.442010193, 6.37833236900002]}, "properties": {"IPID": 9559262, "DIAMETRO": 150, "ESTADO": "OPERACION", "TIPO_AGUA": "POTABLE", "NOMBRE_CIRCUITO": "GIRARDOTA", "UBICACION": "CR 14 CL 3 -12", "MUNICIPIO": "GIRARDOTA"}}, {"type": "Feature", "geometry": {"type": "Point", "coordinates": [-75.4467145149999, 6.37294244500004]}, "properties": {"IPID": 9401979, "DIAMETRO": 75, "ESTADO": "OPERACION", "TIPO_AGUA": "POTABLE", "NOMBRE_CIRCUITO": "EL TOTUMO", "UBICACION": "CL 10 CR 11 -51", "MUNICIPIO": "GIRARDOTA"}}, {"type": "Feature", "geometry": {"type": "Point", "coordinates": [-75.4414332109999, 6.37049391400006]}, "properties": {"IPID": 9411061, "DIAMETRO": 75, "ESTADO": "OPERACION", "TIPO_AGUA": "POTABLE", "NOMBRE_CIRCUITO": "GIRARDOTA", "UBICACION": " CL 5 CR 8 75 (INT 48)", "MUNICIPIO": "GIRARDOTA"}}, {"type": "Feature", "geometry": {"type": "Point", "coordinates": [-75.4414385279999, 6.37204640500005]}, "properties": {"IPID": 9411062, "DIAMETRO": 75, "ESTADO": "OPERACION", "TIPO_AGUA": "POTABLE", "NOMBRE_CIRCUITO": "GIRARDOTA", "UBICACION": "CL 5 CR 8 -75", "MUNICIPIO": "GIRARDOTA"}}, {"type": "Feature", "geometry": {"type": "Point", "coordinates": [-75.4745191329999, 6.37781442100004]}, "properties": {"IPID": 9309691, "DIAMETRO": 100, "ESTADO": "OPERACION", "TIPO_AGUA": "POTABLE", "NOMBRE_CIRCUITO": "SAN ESTEBAN", "UBICACION": "177000228800000000", "MUNICIPIO": "GIRARDOTA"}}, {"type": "Feature", "geometry": {"type": "Point", "coordinates": [-75.475016592, 6.37778919500005]}, "properties": {"IPID": 9309696, "DIAMETRO": 100, "ESTADO": "OPERACION", "TIPO_AGUA": "POTABLE", "NOMBRE_CIRCUITO": "SAN ESTEBAN", "UBICACION": "177000227710000000", "MUNICIPIO": "GIRARDOTA"}}, {"type": "Feature", "geometry": {"type": "Point", "coordinates": [-75.445404214, 6.37852126600006]}, "properties": {"IPID": 9279840, "DIAMETRO": 150, "ESTADO": "OPERACION", "TIPO_AGUA": "POTABLE", "NOMBRE_CIRCUITO": "GIRARDOTA", "UBICACION": "CL 5 B CR 15 -72", "MUNICIPIO": "GIRARDOTA"}}, {"type": "Feature", "geometry": {"type": "Point", "coordinates": [-75.4468726269999, 6.37075653300008]}, "properties": {"IPID": 9370762, "DIAMETRO": 75, "ESTADO": "OPERACION", "TIPO_AGUA": "POTABLE", "NOMBRE_CIRCUITO": "EL TOTUMO", "UBICACION": "CR 10 B CL 10 B -100", "MUNICIPIO": "GIRARDOTA"}}, {"type": "Feature", "geometry": {"type": "Point", "coordinates": [-75.440293818, 6.37267859900004]}, "properties": {"IPID": 9354622, "DIAMETRO": 75, "ESTADO": "OPERACION", "TIPO_AGUA": "POTABLE", "NOMBRE_CIRCUITO": "GIRARDOTA", "UBICACION": "CL 5 CR 8 75 (INT 15)", "MUNICIPIO": "GIRARDOTA"}}, {"type": "Feature", "geometry": {"type": "Point", "coordinates": [-75.47589046, 6.38567113300007]}, "properties": {"IPID": 9354350, "DIAMETRO": 100, "ESTADO": "OPERACION", "TIPO_AGUA": "POTABLE", "NOMBRE_CIRCUITO": "SAN ESTEBAN", "UBICACION": "RURAL_177000227400000000_RURAL GIRARDOTA", "MUNICIPIO": "GIRARDOTA"}}, {"type": "Feature", "geometry": {"type": "Point", "coordinates": [-75.475143295, 6.38214441300005]}, "properties": {"IPID": 9354353, "DIAMETRO": 100, "ESTADO": "OPERACION", "TIPO_AGUA": "POTABLE", "NOMBRE_CIRCUITO": "SAN ESTEBAN", "UBICACION": "RURAL_177000227900000000_RURAL GIRARDOTA", "MUNICIPIO": "GIRARDOTA"}}, {"type": "Feature", "geometry": {"type": "Point", "coordinates": [-75.475365412, 6.38229222400003]}, "properties": {"IPID": 9354354, "DIAMETRO": 100, "ESTADO": "OPERACION", "TIPO_AGUA": "POTABLE", "NOMBRE_CIRCUITO": "SAN ESTEBAN", "UBICACION": "RURAL_177000212800", "MUNICIPIO": "GIRARDOTA"}}, {"type": "Feature", "geometry": {"type": "Point", "coordinates": [-75.475205086, 6.38275903700003]}, "properties": {"IPID": 9354509, "DIAMETRO": 100, "ESTADO": "OPERACION", "TIPO_AGUA": "POTABLE", "NOMBRE_CIRCUITO": "SAN ESTEBAN", "UBICACION": "RURAL_177000227810000000_RURAL GIRARDOTA", "MUNICIPIO": "GIRARDOTA"}}, {"type": "Feature", "geometry": {"type": "Point", "coordinates": [-75.449545327, 6.37522576800006]}, "properties": {"IPID": 9489164, "DIAMETRO": 75, "ESTADO": "OPERACION", "TIPO_AGUA": "POTABLE", "NOMBRE_CIRCUITO": "EL TOTUMO", "UBICACION": "CR 16 CL 11 -3", "MUNICIPIO": "GIRARDOTA"}}, {"type": "Feature", "geometry": {"type": "Point", "coordinates": [-75.442780453, 6.37497044300005]}, "properties": {"IPID": 9465550, "DIAMETRO": 150, "ESTADO": "OPERACION", "TIPO_AGUA": "POTABLE", "NOMBRE_CIRCUITO": "GIRARDOTA", "UBICACION": "CL 5 B CR 11 B -16", "MUNICIPIO": "GIRARDOTA"}}, {"type": "Feature", "geometry": {"type": "Point", "coordinates": [-75.4470979339999, 6.37547384900006]}, "properties": {"IPID": 9473730, "DIAMETRO": 150, "ESTADO": "OPERACION", "TIPO_AGUA": "POTABLE", "NOMBRE_CIRCUITO": "GIRARDOTA", "UBICACION": "CR 14 CL 8 -64", "MUNICIPIO": "GIRARDOTA"}}, {"type": "Feature", "geometry": {"type": "Point", "coordinates": [-75.455208485, 6.38226827900007]}, "properties": {"IPID": 9369410, "DIAMETRO": 75, "ESTADO": "OPERACION", "TIPO_AGUA": "POTABLE", "NOMBRE_CIRCUITO": "GIRARDOTA", "UBICACION": "RURAL_177000450600000000_RURAL GIRARDOTA", "MUNICIPIO": "GIRARDOTA"}}, {"type": "Feature", "geometry": {"type": "Point", "coordinates": [-75.445772016, 6.36982309300004]}, "properties": {"IPID": 9822897, "DIAMETRO": 100, "ESTADO": "OPERACION", "TIPO_AGUA": "POTABLE", "NOMBRE_CIRCUITO": "EL TOTUMO", "UBICACION": "CL 10 BC CR 9 -51", "MUNICIPIO": "GIRARDOTA"}}, {"type": "Feature", "geometry": {"type": "Point", "coordinates": [-75.445699474, 6.37031089500005]}, "properties": {"IPID": 9822898, "DIAMETRO": 75, "ESTADO": "OPERACION", "TIPO_AGUA": "POTABLE", "NOMBRE_CIRCUITO": "EL TOTUMO", "UBICACION": "CL 10 BA CR 9A-21", "MUNICIPIO": "GIRARDOTA"}}, {"type": "Feature", "geometry": {"type": "Point", "coordinates": [-75.4457373449999, 6.37198446000002]}, "properties": {"IPID": 9723347, "DIAMETRO": 75, "ESTADO": "OPERACION", "TIPO_AGUA": "POTABLE", "NOMBRE_CIRCUITO": "EL TOTUMO", "UBICACION": "CR 10 A CL 10 -3", "MUNICIPIO": "GIRARDOTA"}}, {"type": "Feature", "geometry": {"type": "Point", "coordinates": [-75.46735627, 6.38202149200004]}, "properties": {"IPID": 10021113, "DIAMETRO": 75, "ESTADO": "CONSTRUCCION", "TIPO_AGUA": "POTABLE", "NOMBRE_CIRCUITO": "SAN ESTEBAN", "UBICACION": "RURAL_177000398500000000_GIRARDOTA", "MUNICIPIO": "GIRARDOTA"}}, {"type": "Feature", "geometry": {"type": "Point", "coordinates": [-75.4512898529999, 6.36789489400007]}, "properties": {"IPID": 10149198, "DIAMETRO": 75, "ESTADO": "OPERACION", "TIPO_AGUA": "POTABLE", "NOMBRE_CIRCUITO": "EL TOTUMO", "UBICACION": "CR 14 CL 15 - 126", "MUNICIPIO": "GIRARDOTA"}}, {"type": "Feature", "geometry": {"type": "Point", "coordinates": [-75.444349398, 6.37571804300006]}, "properties": {"IPID": 4022596, "DIAMETRO": 150, "ESTADO": "OPERACION", "TIPO_AGUA": "POTABLE", "NOMBRE_CIRCUITO": "GIRARDOTA", "UBICACION": "CR 13 CL 5 B -70", "MUNICIPIO": "GIRARDOTA"}}, {"type": "Feature", "geometry": {"type": "Point", "coordinates": [-75.4479075739999, 6.38110174500002]}, "properties": {"IPID": 2024660, "DIAMETRO": 150, "ESTADO": "OPERACION", "TIPO_AGUA": "POTABLE", "NOMBRE_CIRCUITO": "GIRARDOTA", "UBICACION": "CR 19 CL 5 C -120_", "MUNICIPIO": "GIRARDOTA"}}, {"type": "Feature", "geometry": {"type": "Point", "coordinates": [-75.4502166299999, 6.37456957500007]}, "properties": {"IPID": 9724103, "DIAMETRO": 75, "ESTADO": "OPERACION", "TIPO_AGUA": "POTABLE", "NOMBRE_CIRCUITO": "EL TOTUMO", "UBICACION": "CR 16 CL 11 -37", "MUNICIPIO": "GIRARDOTA"}}, {"type": "Feature", "geometry": {"type": "Point", "coordinates": [-75.45113137, 6.37504498600003]}, "properties": {"IPID": 10260607, "DIAMETRO": 150, "ESTADO": "OPERACION", "TIPO_AGUA": "POTABLE", "NOMBRE_CIRCUITO": "EL TOTUMO", "UBICACION": "CR 17 CL 12 -73", "MUNICIPIO": "GIRARDOTA"}}, {"type": "Feature", "geometry": {"type": "Point", "coordinates": [-75.47992813, 6.38037086300005]}, "properties": {"IPID": 10259331, "DIAMETRO": 75, "ESTADO": "OPERACION", "TIPO_AGUA": "POTABLE", "NOMBRE_CIRCUITO": "SAN ESTEBAN", "UBICACION": "RURAL_177000212500000102_RUR GIRARDOTA AUTOP", "MUNICIPIO": "GIRARDOTA"}}, {"type": "Feature", "geometry": {"type": "Point", "coordinates": [-75.444103102, 6.37849593600004]}, "properties": {"IPID": 10152937, "DIAMETRO": 75, "ESTADO": "OPERACION", "TIPO_AGUA": "POTABLE", "NOMBRE_CIRCUITO": "GIRARDOTA", "UBICACION": "CL 5 A CR 14 A -70", "MUNICIPIO": "GIRARDOTA"}}, {"type": "Feature", "geometry": {"type": "Point", "coordinates": [-75.455637193, 6.38329664200006]}, "properties": {"IPID": 9748931, "DIAMETRO": 150, "ESTADO": "OPERACION", "TIPO_AGUA": "POTABLE", "NOMBRE_CIRCUITO": "GIRARDOTA", "UBICACION": "RURAL_177000451000000000_RURAL GIRARDOTA", "MUNICIPIO": "GIRARDOTA"}}, {"type": "Feature", "geometry": {"type": "Point", "coordinates": [-75.4682426059999, 6.38303822200004]}, "properties": {"IPID": 10276839, "DIAMETRO": 150, "ESTADO": "OPERACION", "TIPO_AGUA": "POTABLE", "NOMBRE_CIRCUITO": "SAN ESTEBAN", "UBICACION": "RURAL_177000398500000000_RURAL GIRARDOTA", "MUNICIPIO": "GIRARDOTA"}}, {"type": "Feature", "geometry": {"type": "Point", "coordinates": [-75.450821202, 6.37249792900008]}, "properties": {"IPID": 10102295, "DIAMETRO": 75, "ESTADO": "OPERACION", "TIPO_AGUA": "POTABLE", "NOMBRE_CIRCUITO": "EL TOTUMO", "UBICACION": "CL 12 A CR 14 - 173", "MUNICIPIO": "GIRARDOTA"}}, {"type": "Feature", "geometry": {"type": "Point", "coordinates": [-75.449031507, 6.37217696500005]}, "properties": {"IPID": 10102296, "DIAMETRO": 75, "ESTADO": "OPERACION", "TIPO_AGUA": "POTABLE", "NOMBRE_CIRCUITO": "EL TOTUMO", "UBICACION": "CR 14 CL 12 A -60", "MUNICIPIO": "GIRARDOTA"}}, {"type": "Feature", "geometry": {"type": "Point", "coordinates": [-75.439528465, 6.37217707700006]}, "properties": {"IPID": 2024697, "DIAMETRO": 100, "ESTADO": "OPERACION", "TIPO_AGUA": "POTABLE", "NOMBRE_CIRCUITO": "GIRARDOTA", "UBICACION": "CL 5 A CR 7 -121_", "MUNICIPIO": "GIRARDOTA"}}, {"type": "Feature", "geometry": {"type": "Point", "coordinates": [-75.4498338349999, 6.37062646500004]}, "properties": {"IPID": 2024654, "DIAMETRO": 150, "ESTADO": "OPERACION", "TIPO_AGUA": "POTABLE", "NOMBRE_CIRCUITO": "EL TOTUMO", "UBICACION": "CR 14 CL 14 -25", "MUNICIPIO": "GIRARDOTA"}}, {"type": "Feature", "geometry": {"type": "Point", "coordinates": [-75.4633676619999, 6.37222745900004]}, "properties": {"IPID": 2024174, "DIAMETRO": 75, "ESTADO": "OPERACION", "TIPO_AGUA": "POTABLE", "NOMBRE_CIRCUITO": "EL TOTUMO", "UBICACION": "RURAL_177079570000000000_177079570000000000_", "MUNICIPIO": "GIRARDOTA"}}, {"type": "Feature", "geometry": {"type": "Point", "coordinates": [-75.4460333499999, 6.37812185500007]}, "properties": {"IPID": 2024924, "DIAMETRO": 75, "ESTADO": "OPERACION", "TIPO_AGUA": "POTABLE", "NOMBRE_CIRCUITO": "GIRARDOTA", "UBICACION": "CL 6 CR 16 -4_", "MUNICIPIO": "GIRARDOTA"}}, {"type": "Feature", "geometry": {"type": "Point", "coordinates": [-75.43875738, 6.37260271000002]}, "properties": {"IPID": 10274973, "DIAMETRO": 75, "ESTADO": "OPERACION", "TIPO_AGUA": "POTABLE", "NOMBRE_CIRCUITO": "GIRARDOTA", "UBICACION": " CL 5 CR 7 - 87", "MUNICIPIO": "GIRARDOTA"}}, {"type": "Feature", "geometry": {"type": "Point", "coordinates": [-75.44679616, 6.37191621200003]}, "properties": {"IPID": 10291813, "DIAMETRO": 75, "ESTADO": "OPERACION", "TIPO_AGUA": "POTABLE", "NOMBRE_CIRCUITO": "EL TOTUMO", "UBICACION": "CR 11 CR 10A -23", "MUNICIPIO": "GIRARDOTA"}}, {"type": "Feature", "geometry": {"type": "Point", "coordinates": [-75.448400642, 6.37434866200005]}, "properties": {"IPID": 2031030, "DIAMETRO": 150, "ESTADO": "OPERACION", "TIPO_AGUA": "POTABLE", "NOMBRE_CIRCUITO": "EL TOTUMO", "UBICACION": "CR 14 CL 10 -90", "MUNICIPIO": "GIRARDOTA"}}, {"type": "Feature", "geometry": {"type": "Point", "coordinates": [-75.45266657, 6.37559877300004]}, "properties": {"IPID": 10332526, "DIAMETRO": 150, "ESTADO": "OPERACION", "TIPO_AGUA": "POTABLE", "NOMBRE_CIRCUITO": "EL TOTUMO", "UBICACION": "RURAL_1770476700150000_GIRARDOTA", "MUNICIPIO": "GIRARDOTA"}}, {"type": "Feature", "geometry": {"type": "Point", "coordinates": [-75.448044507, 6.37378308100006]}, "properties": {"IPID": 10356095, "DIAMETRO": 75, "ESTADO": "OPERACION", "TIPO_AGUA": "POTABLE", "NOMBRE_CIRCUITO": "EL TOTUMO", "UBICACION": "CR 13 CL 10 - 92", "MUNICIPIO": "GIRARDOTA"}}, {"type": "Feature", "geometry": {"type": "Point", "coordinates": [-75.416391388, 6.39202160500002]}, "properties": {"IPID": 10328879, "DIAMETRO": 75, "ESTADO": "OPERACION", "TIPO_AGUA": "POTABLE", "NOMBRE_CIRCUITO": "GIRARDOTA", "UBICACION": "RURAL_177003330000000000_177003330000000000", "MUNICIPIO": "GIRARDOTA"}}, {"type": "Feature", "geometry": {"type": "Point", "coordinates": [-75.4504220699999, 6.36969813600007]}, "properties": {"IPID": 10285746, "DIAMETRO": 75, "ESTADO": "OPERACION", "TIPO_AGUA": "POTABLE", "NOMBRE_CIRCUITO": "EL TOTUMO", "UBICACION": "CR 14 CL 14 -130", "MUNICIPIO": "GIRARDOTA"}}, {"type": "Feature", "geometry": {"type": "Point", "coordinates": [-75.473706468, 6.37805878700004]}, "properties": {"IPID": 10291442, "DIAMETRO": 75, "ESTADO": "OPERACION", "TIPO_AGUA": "POTABLE", "NOMBRE_CIRCUITO": "SAN ESTEBAN", "UBICACION": "RURAL_177000228950000", "MUNICIPIO": "GIRARDOTA"}}, {"type": "Feature", "geometry": {"type": "Point", "coordinates": [-75.44682241, 6.37004815800003]}, "properties": {"IPID": 10413201, "DIAMETRO": 150, "ESTADO": "CONSTRUCCION", "TIPO_AGUA": "POTABLE", "NOMBRE_CIRCUITO": "EL TOTUMO", "UBICACION": "CR 9 A CL 10 C -133", "MUNICIPIO": "GIRARDOTA"}}]}