{
  "type": "FeatureCollection",
  "name": "incendios",
  "crs": { "type": "name", "properties": { "name": "urn:ogc:def:crs:OGC:1.3:CRS84" } },
  "features": [
    {
      "type": "Feature",
      "geometry": { "type": "Point", "coordinates": [-75.42610357515514, 6.388723226264119] },
      "properties": {
        "evento": "Incendio",
        "fecha": "24 de agosto de 2026",
        "vereda": "San Diego",
        "sector": "Finca El Kaney",
        "descripcion": "El 24 de agosto de 2026 se registró un incendio en la vereda San Diego, sector Finca El Kaney, en Girardota. Ocurrió en un predio donde se almacenaban tambores y materiales. El fuego consumió la edificación y dejó un gran volumen de residuos: tambores metálicos, estructuras colapsadas y sustancias derramadas. La respuesta incluyó labores de enfriamiento, remoción y manejo de escombros. La emergencia fue atendida por el Cuerpo de Bomberos Voluntarios de Girardota, y la Secretaría de Infraestructura realizó la inspección y la remoción posterior.",
        "fotos": [
          "img/emergencias/incendio_24ago_1.jpg",
          "img/emergencias/incendio_24ago_2.jpg",
          "img/emergencias/incendio_24ago_3.jpg"
        ],
        "informe": "descargas/emergencias/informe_ejecutivo_incendio_24ago.pdf",
        "fuente": "Cuerpo de Bomberos Voluntarios de Girardota y Secretaría de Infraestructura, Alcaldía de Girardota."
      }
    }
  ]
}
